{"type": "FeatureCollection", "features": [ {"type": "Feature", "properties": {"norad_id": 40115, "name": "WORLDVIEW-3 (WV-3)", "group": "resource", "lat": 81.12613716844999, "lon": -56.883807838006526, "alt_km": 604.1794606658868, "timestamp": "2025-12-14T14:39:29.033514+00:00", "meta": {"OBJECT_NAME": "WORLDVIEW-3 (WV-3)", "OBJECT_ID": "2014-048A", "EPOCH": "2025-12-13T22:04:11.482176", "MEAN_MOTION": 14.85516104, "ECCENTRICITY": 0.00048878, "INCLINATION": 97.8615, "RA_OF_ASC_NODE": 60.1851, "ARG_OF_PERICENTER": 180.5537, "MEAN_ANOMALY": 179.5674, "EPHEMERIS_TYPE": 0, "CLASSIFICATION_TYPE": "U", "NORAD_CAT_ID": 40115, "ELEMENT_SET_NO": 999, "REV_AT_EPOCH": 61441, "BSTAR": 0.00017125314, "MEAN_MOTION_DOT": 1.425e-05, "MEAN_MOTION_DDOT": 0}, "tle": {"line1": "1 40115U 14048A   25347.91957734  .00001425  00000+0  17125-3 0  9994", "line2": "2 40115  97.8615  60.1851 0004887 180.5537 179.5674 14.85516104614416"}}, "geometry": {"type": "Point", "coordinates": [-56.883807838006526, 81.12613716844999]}}, {"type": "Feature", "properties": {"norad_id": 40118, "name": "GAOFEN-2", "group": "resource", "lat": -57.84502741277266, "lon": -145.2092061251958, "alt_km": 638.5004735908606, "timestamp": "2025-12-14T14:39:29.033524+00:00", "meta": {"OBJECT_NAME": "GAOFEN-2", "OBJECT_ID": "2014-049A", "EPOCH": "2025-12-14T00:36:30.566592", "MEAN_MOTION": 14.80613086, "ECCENTRICITY": 0.00086514, "INCLINATION": 98.0384, "RA_OF_ASC_NODE": 47.1957, "ARG_OF_PERICENTER": 109.135, "MEAN_ANOMALY": 251.0799, "EPHEMERIS_TYPE": 0, "CLASSIFICATION_TYPE": "U", "NORAD_CAT_ID": 40118, "ELEMENT_SET_NO": 999, "REV_AT_EPOCH": 61183, "BSTAR": 0.0001505384, "MEAN_MOTION_DOT": 1.102e-05, "MEAN_MOTION_DDOT": 0}, "tle": {"line1": "1 40118U 14049A   25348.02535378  .00001102  00000+0  15054-3 0  9998", "line2": "2 40118  98.0384  47.1957 0008651 109.1350 251.0799 14.80613086611839"}}, "geometry": {"type": "Point", "coordinates": [-145.2092061251958, -57.84502741277266]}}, {"type": "Feature", "properties": {"norad_id": 40143, "name": "YAOGAN-21", "group": "resource", "lat": 47.613733609923734, "lon": -140.22286651127513, "alt_km": 491.23889671483175, "timestamp": "2025-12-14T14:39:29.033535+00:00", "meta": {"OBJECT_NAME": "YAOGAN-21", "OBJECT_ID": "2014-053A", "EPOCH": "2025-12-13T23:53:49.765632", "MEAN_MOTION": 15.23698524, "ECCENTRICITY": 0.00096012, "INCLINATION": 97.1764, "RA_OF_ASC_NODE": 31.2535, "ARG_OF_PERICENTER": 37.5147, "MEAN_ANOMALY": 322.6759, "EPHEMERIS_TYPE": 0, "CLASSIFICATION_TYPE": "U", "NORAD_CAT_ID": 40143, "ELEMENT_SET_NO": 999, "REV_AT_EPOCH": 62673, "BSTAR": 0.00030205773, "MEAN_MOTION_DOT": 7.193e-05, "MEAN_MOTION_DDOT": 0}, "tle": {"line1": "1 40143U 14053A   25347.99571488  .00007193  00000+0  30206-3 0  9990", "line2": "2 40143  97.1764  31.2535 0009601  37.5147 322.6759 15.23698524626733"}}, "geometry": {"type": "Point", "coordinates": [-140.22286651127513, 47.613733609923734]}}, {"type": "Feature", "properties": {"norad_id": 40275, "name": "YAOGAN-22", "group": "resource", "lat": 6.75823238965483, "lon": 130.7673844494308, "alt_km": 1206.1231317516958, "timestamp": "2025-12-14T14:39:29.033545+00:00", "meta": {"OBJECT_NAME": "YAOGAN-22", "OBJECT_ID": "2014-063A", "EPOCH": "2025-12-13T22:11:45.737952", "MEAN_MOTION": 13.1552268, "ECCENTRICITY": 0.00059581, "INCLINATION": 100.7422, "RA_OF_ASC_NODE": 131.3611, "ARG_OF_PERICENTER": 245.3119, "MEAN_ANOMALY": 114.7372, "EPHEMERIS_TYPE": 0, "CLASSIFICATION_TYPE": "U", "NORAD_CAT_ID": 40275, "ELEMENT_SET_NO": 999, "REV_AT_EPOCH": 53545, "BSTAR": 2.7527431e-05, "MEAN_MOTION_DOT": -3.6e-07, "MEAN_MOTION_DDOT": 0}, "tle": {"line1": "1 40275U 14063A   25347.92483493 -.00000036  00000+0  27527-4 0  9991", "line2": "2 40275 100.7422 131.3611 0005958 245.3119 114.7372 13.15522680535454"}}, "geometry": {"type": "Point", "coordinates": [130.7673844494308, 6.75823238965483]}}, {"type": "Feature", "properties": {"norad_id": 40298, "name": "ASNARO", "group": "resource", "lat": 28.079577673318145, "lon": -111.53226187350924, "alt_km": 502.90982926857487, "timestamp": "2025-12-14T14:39:29.033555+00:00", "meta": {"OBJECT_NAME": "ASNARO", "OBJECT_ID": "2014-070A", "EPOCH": "2025-12-13T23:46:10.978176", "MEAN_MOTION": 15.19531515, "ECCENTRICITY": 0.00056922, "INCLINATION": 97.3652, "RA_OF_ASC_NODE": 63.9056, "ARG_OF_PERICENTER": 117.6185, "MEAN_ANOMALY": 242.5629, "EPHEMERIS_TYPE": 0, "CLASSIFICATION_TYPE": "U", "NORAD_CAT_ID": 40298, "ELEMENT_SET_NO": 999, "REV_AT_EPOCH": 61588, "BSTAR": 0.0004947222, "MEAN_MOTION_DOT": 0.00010456, "MEAN_MOTION_DDOT": 0}, "tle": {"line1": "1 40298U 14070A   25347.99040484  .00010456  00000+0  49472-3 0  9998", "line2": "2 40298  97.3652  63.9056 0005692 117.6185 242.5629 15.19531515615881"}}, "geometry": {"type": "Point", "coordinates": [-111.53226187350924, 28.079577673318145]}}, {"type": "Feature", "properties": {"norad_id": 40310, "name": "YAOGAN-24", "group": "resource", "lat": -12.678044660798761, "lon": -62.12775281481906, "alt_km": 640.7814362964373, "timestamp": "2025-12-14T14:39:29.033568+00:00", "meta": {"OBJECT_NAME": "YAOGAN-24", "OBJECT_ID": "2014-072A", "EPOCH": "2025-12-13T23:08:52.547712", "MEAN_MOTION": 14.76182124, "ECCENTRICITY": 0.00147854, "INCLINATION": 98.1217, "RA_OF_ASC_NODE": 119.0637, "ARG_OF_PERICENTER": 134.2014, "MEAN_ANOMALY": 226.0413, "EPHEMERIS_TYPE": 0, "CLASSIFICATION_TYPE": "U", "NORAD_CAT_ID": 40310, "ELEMENT_SET_NO": 999, "REV_AT_EPOCH": 59639, "BSTAR": 0.00022819574, "MEAN_MOTION_DOT": 1.528e-05, "MEAN_MOTION_DDOT": 0}, "tle": {"line1": "1 40310U 14072A   25347.96449708  .00001528  00000+0  22820-3 0  9992", "line2": "2 40310  98.1217 119.0637 0014785 134.2014 226.0413 14.76182124596391"}}, "geometry": {"type": "Point", "coordinates": [-62.12775281481906, -12.678044660798761]}}, {"type": "Feature", "properties": {"norad_id": 40336, "name": "CBERS 4", "group": "resource", "lat": 19.23472662150549, "lon": 43.63259803639488, "alt_km": 773.4694964085065, "timestamp": "2025-12-14T14:39:29.033578+00:00", "meta": {"OBJECT_NAME": "CBERS 4", "OBJECT_ID": "2014-079A", "EPOCH": "2025-12-13T23:30:43.960608", "MEAN_MOTION": 14.3551861, "ECCENTRICITY": 0.00016616, "INCLINATION": 98.3306, "RA_OF_ASC_NODE": 45.9537, "ARG_OF_PERICENTER": 110.3889, "MEAN_ANOMALY": 249.7476, "EPHEMERIS_TYPE": 0, "CLASSIFICATION_TYPE": "U", "NORAD_CAT_ID": 40336, "ELEMENT_SET_NO": 999, "REV_AT_EPOCH": 57738, "BSTAR": 0.00012180819, "MEAN_MOTION_DOT": 3.08e-06, "MEAN_MOTION_DDOT": 0}, "tle": {"line1": "1 40336U 14079A   25347.97967547  .00000308  00000+0  12181-3 0  9998", "line2": "2 40336  98.3306  45.9537 0001661 110.3889 249.7476 14.35518610577387"}}, "geometry": {"type": "Point", "coordinates": [43.63259803639488, 19.23472662150549]}}, {"type": "Feature", "properties": {"norad_id": 40362, "name": "YAOGAN-26", "group": "resource", "lat": -47.927938899577434, "lon": -2.8850113804454973, "alt_km": 453.54928000224845, "timestamp": "2025-12-14T14:39:29.033589+00:00", "meta": {"OBJECT_NAME": "YAOGAN-26", "OBJECT_ID": "2014-088A", "EPOCH": "2025-12-13T23:16:01.219584", "MEAN_MOTION": 15.39365218, "ECCENTRICITY": 0.00061015, "INCLINATION": 97.0645, "RA_OF_ASC_NODE": 348.5998, "ARG_OF_PERICENTER": 26.8678, "MEAN_ANOMALY": 333.2884, "EPHEMERIS_TYPE": 0, "CLASSIFICATION_TYPE": "U", "NORAD_CAT_ID": 40362, "ELEMENT_SET_NO": 999, "REV_AT_EPOCH": 60913, "BSTAR": 0.00073110091, "MEAN_MOTION_DOT": 0.00028577, "MEAN_MOTION_DDOT": 0}, "tle": {"line1": "1 40362U 14088A   25347.96945856  .00028577  00000+0  73110-3 0  9992", "line2": "2 40362  97.0645 348.5998 0006101  26.8678 333.2884 15.39365218609132"}}, "geometry": {"type": "Point", "coordinates": [-2.8850113804454973, -47.927938899577434]}}, {"type": "Feature", "properties": {"norad_id": 40376, "name": "SMAP", "group": "resource", "lat": 48.78774285284652, "lon": -16.08520073833842, "alt_km": 677.3257339485863, "timestamp": "2025-12-14T14:39:29.033599+00:00", "meta": {"OBJECT_NAME": "SMAP", "OBJECT_ID": "2015-003A", "EPOCH": "2025-12-13T23:39:48.152736", "MEAN_MOTION": 14.63346944, "ECCENTRICITY": 0.00012014, "INCLINATION": 98.1291, "RA_OF_ASC_NODE": 352.6918, "ARG_OF_PERICENTER": 90.3617, "MEAN_ANOMALY": 269.7723, "EPHEMERIS_TYPE": 0, "CLASSIFICATION_TYPE": "U", "NORAD_CAT_ID": 40376, "ELEMENT_SET_NO": 999, "REV_AT_EPOCH": 58053, "BSTAR": 0.00016171934, "MEAN_MOTION_DOT": 7.88e-06, "MEAN_MOTION_DDOT": 0}, "tle": {"line1": "1 40376U 15003A   25347.98597399  .00000788  00000+0  16172-3 0  9991", "line2": "2 40376  98.1291 352.6918 0001201  90.3617 269.7723 14.63346944580537"}}, "geometry": {"type": "Point", "coordinates": [-16.08520073833842, 48.78774285284652]}}, {"type": "Feature", "properties": {"norad_id": 40536, "name": "KOMPSAT-3A", "group": "resource", "lat": -74.47474938907243, "lon": -7.882474998465806, "alt_km": 444.809402758352, "timestamp": "2025-12-14T14:39:29.033609+00:00", "meta": {"OBJECT_NAME": "KOMPSAT-3A", "OBJECT_ID": "2015-014A", "EPOCH": "2025-12-13T23:26:06.643392", "MEAN_MOTION": 15.44003084, "ECCENTRICITY": 0.00050156, "INCLINATION": 97.6785, "RA_OF_ASC_NODE": 322.3916, "ARG_OF_PERICENTER": 124.0172, "MEAN_ANOMALY": 236.1553, "EPHEMERIS_TYPE": 0, "CLASSIFICATION_TYPE": "U", "NORAD_CAT_ID": 40536, "ELEMENT_SET_NO": 999, "REV_AT_EPOCH": 59314, "BSTAR": 0.00045705734, "MEAN_MOTION_DOT": 0.00020777, "MEAN_MOTION_DDOT": 0}, "tle": {"line1": "1 40536U 15014A   25347.97646578  .00020777  00000+0  45706-3 0  9999", "line2": "2 40536  97.6785 322.3916 0005015 124.0172 236.1553 15.44003084593142"}}, "geometry": {"type": "Point", "coordinates": [-7.882474998465806, -74.47474938907243]}}]}